INTELSAT 902 (IS-902)   
1 26900U 01039A   26165.53624534 -.00000281  00000+0  00000+0 0  9992
2 26900   6.1108  71.8168 0004488   8.0143 325.9476  1.00270945 90661
INTELSAT 904 (IS-904)   
1 27380U 02007A   26165.16112227 -.00000223  00000+0  00000+0 0  9997
2 27380   6.9124  69.2201 0006463   4.1571 215.6025  1.00271167 51733
DIRECTV 5 (TEMPO 1)     
1 27426U 02023A   26165.66687941 -.00000055  00000+0  00000+0 0  9994
2 27426   4.8714  75.3412 0003218  22.1808 295.4136  1.00271433 88090
INTELSAT 905 (IS-905)   
1 27438U 02027A   26165.59827876  .00000095  00000+0  00000+0 0  9999
2 27438   6.7471  69.8304 0003798  20.9273 250.3045  1.00272386 51331
GALAXY 3C (G-3C)        
1 27445U 02030A   26165.59863112 -.00000149  00000+0  00000+0 0  9995
2 27445   3.7249  78.0091 0001521  34.3645 271.1797  1.00271083 46464
INTELSAT 906 (IS-906)   
1 27513U 02041A   26165.89680843  .00000014  00000+0  00000+0 0  9994
2 27513   5.7971  72.9505 0004640   4.7361 212.4912  1.00272491 87004
GALAXY 13 (HORIZONS-1)  
1 27954U 03044A   26165.73025024  .00000138  00000+0  00000+0 0  9991
2 27954   1.4132  83.8961 0002287 349.5046 302.5095  1.00269915 46541
INTELSAT 10-02          
1 28358U 04022A   26165.68854617 -.00000004  00000+0  00000+0 0  9992
2 28358   0.0115 318.2352 0000570 256.9130 294.7051  1.00272541 80533
DIRECTV 8               
1 28659U 05019A   26165.73640361  .00000008  00000+0  00000+0 0  9991
2 28659   0.0144 306.5245 0002747 140.6011 321.9554  1.00270881 77043
GALAXY 28 (G-28)        
1 28702U 05022A   26165.82586889 -.00000197  00000+0  00000+0 0  9998
2 28702   3.2928  78.9629 0002874   3.6366  90.7326  1.00271075 51951
GALAXY 16 (G-16)        
1 29236U 06023A   26165.66904609 -.00000120  00000+0  00000+0 0  9995
2 29236   0.0121 295.3403 0002439 159.9810 309.4935  1.00270676 72949
DIRECTV 9S              
1 29494U 06043A   26165.66869941 -.00000109  00000+0  00000+0 0  9999
2 29494   2.4143  80.9316 0004829  11.4760 310.0985  1.00270819 51351
GALAXY 17 (G-17)        
1 31307U 07016B   26165.81442883 -.00000202  00000+0  00000+0 0  9999
2 31307   2.9663  79.9300 0004753  22.4703   8.8904  1.00269455 69788
INTELSAT 11 (IS-11)     
1 32253U 07044B   26165.78695536 -.00000273  00000+0  00000+0 0  9990
2 32253   3.5592  78.6973 0002232  91.2717 152.8295  0.99051839 68423
HORIZONS-2              
1 32388U 07063B   26165.81668219 -.00000249  00000+0  00000+0 0  9995
2 32388   2.5960  80.6542 0003708   0.7189  41.9526  1.00269150 67796
DIRECTV 11              
1 32729U 08013A   26165.59776446 -.00000119  00000+0  00000+0 0  9993
2 32729   0.0117 286.9616 0000474  78.9307  13.0223  1.00270495 45560
GALAXY 18 (G-18)        
1 32951U 08024A   26165.73562361  .00000031  00000+0  00000+0 0  9999
2 32951   0.0195  22.4390 0002674  63.2428 319.1695  1.00271725 45829
INTELSAT 25 (IS-25)     
1 33153U 08034A   26165.85738529 -.00000258  00000+0  00000+0 0  9991
2 33153   2.7038  80.3985 0003172  59.7718 203.6617  0.99035870 65669
GALAXY 19 (G-19)        
1 33376U 08045A   26165.81200215  .00000000  00000+0  00000+0 0  9996
2 33376   0.0199   9.0086 0002428  79.8629   9.5610  1.00270104 64885
FM-5                    
1 35493U 09034A   26165.81425551 -.00000194  00000+0  00000+0 0  9994
2 35493   0.0205 292.4193 0001019  18.8658 158.8044  1.00269724 46629
INTELSAT 14 (IS-14)     
1 36097U 09064A   26165.82240220 -.00000268  00000+0  00000+0 0  9999
2 36097   0.0187  46.5036 0002141  29.3107  78.3778  1.00270311 60581
INTELSAT 15 (IS-15)     
1 36106U 09067A   26165.84811191 -.00000179  00000+0  00000+0 0  9997
2 36106   0.0207  52.3845 0002016  35.1403 206.0861  1.00270759 41200
DIRECTV 12              
1 36131U 09075A   26165.66835274 -.00000097  00000+0  00000+0 0  9991
2 36131   0.0086 104.6882 0000387 268.4542  27.7068  1.00269778 46525
INTELSAT 16 (IS-16)     
1 36397U 10006A   26165.81616218 -.00000239  00000+0  00000+0 0  9991
2 36397   0.0214 301.2579 0001911 164.4131  15.0573  1.00269632 59639
XM-5                    
1 37185U 10053A   26165.66592608 -.00000017  00000+0  00000+0 0  9992
2 37185   0.0656 273.1442 0002890 288.2413 186.1176  1.00271655 57451
INTELSAT 17 (IS-17)     
1 37238U 10065B   26165.84438522  .00000004  00000+0  00000+0 0  9993
2 37238   0.0094  80.5431 0002588  11.7175 180.8491  1.00271306 53227
INTELSAT 28 (IS-28)     
1 37392U 11016A   26165.82500220 -.00000221  00000+0  00000+0 0  9996
2 37392   1.8002  82.6483 0003579   5.7251  80.0352  1.00270183 53268
INTELSAT 18 (IS-18)     
1 37834U 11056A   26165.79562207  .00000059  00000+0  00000+0 0  9998
2 37834   0.0156 296.4719 0001585 145.2148 287.8261  1.00271456 53784
INTELSAT 22 (IS-22)     
1 38098U 12011A   26165.84559855  .00000000  00000+0  00000+0 0  9990
2 38098   0.0400  53.0419 0001600  45.5836 181.0114  1.00271272  7166
INTELSAT 19 (IS-19)     
1 38356U 12030A   26165.79284874 -.00000051  00000+0  00000+0 0  9995
2 38356   0.0165 345.0698 0002789 107.2340 262.2051  1.00270597 50427
INTELSAT 20 (IS-20)     
1 38740U 12043A   26165.84481855 -.00000018  00000+0  00000+0 0  9993
2 38740   0.0028  41.8549 0001822 135.6638  98.2637  1.00267923 50729
