OBJECT_NAME,OBJECT_ID,EPOCH,MEAN_MOTION,ECCENTRICITY,INCLINATION,RA_OF_ASC_NODE,ARG_OF_PERICENTER,MEAN_ANOMALY,EPHEMERIS_TYPE,CLASSIFICATION_TYPE,NORAD_CAT_ID,ELEMENT_SET_NO,REV_AT_EPOCH,BSTAR,MEAN_MOTION_DOT,MEAN_MOTION_DDOT
INTELSAT 902 (IS-902),2001-039A,2026-06-14T12:52:11.597376,1.00270945,.0004488,6.1108,71.8168,8.0143,325.9476,0,U,26900,999,9066,0,-.281E-5,0
INTELSAT 904 (IS-904),2002-007A,2026-06-14T03:52:00.964128,1.00271167,.0006463,6.9124,69.2201,4.1571,215.6025,0,U,27380,999,5173,0,-.223E-5,0
DIRECTV 5 (TEMPO 1),2002-023A,2026-06-14T16:00:18.381024,1.00271433,.0003218,4.8714,75.3412,22.1808,295.4136,0,U,27426,999,8809,0,-.55E-6,0
INTELSAT 905 (IS-905),2002-027A,2026-06-14T14:21:31.284864,1.00272386,.0003798,6.7471,69.8304,20.9273,250.3045,0,U,27438,999,5133,0,.95E-6,0
GALAXY 3C (G-3C),2002-030A,2026-06-14T14:22:01.728768,1.00271083,.0001521,3.7249,78.0091,34.3645,271.1797,0,U,27445,999,4646,0,-.149E-5,0
INTELSAT 906 (IS-906),2002-041A,2026-06-14T21:31:24.248352,1.00272491,.000464,5.7971,72.9505,4.7361,212.4912,0,U,27513,999,8700,0,.14E-6,0
GALAXY 13 (HORIZONS-1),2003-044A,2026-06-14T17:31:33.620736,1.00269915,.0002287,1.4132,83.8961,349.5046,302.5095,0,U,27954,999,4654,0,.138E-5,0
INTELSAT 10-02,2004-022A,2026-06-14T16:31:30.389088,1.00272541,.000057,0.0115,318.2352,256.9130,294.7051,0,U,28358,999,8053,0,-.4E-7,0
DIRECTV 8,2005-019A,2026-06-14T17:40:25.271904,1.00270881,.0002747,0.0144,306.5245,140.6011,321.9554,0,U,28659,999,7704,0,.8E-7,0
GALAXY 28 (G-28),2005-022A,2026-06-14T19:49:15.072096,1.00271075,.0002874,3.2928,78.9629,3.6366,90.7326,0,U,28702,999,5195,0,-.197E-5,0
GALAXY 16 (G-16),2006-023A,2026-06-14T16:03:25.582176,1.00270676,.0002439,0.0121,295.3403,159.9810,309.4935,0,U,29236,999,7294,0,-.12E-5,0
DIRECTV 9S,2006-043A,2026-06-14T16:02:55.629024,1.00270819,.0004829,2.4143,80.9316,11.4760,310.0985,0,U,29494,999,5135,0,-.109E-5,0
GALAXY 17 (G-17),2007-016B,2026-06-14T19:32:46.650912,1.00269455,.0004753,2.9663,79.9300,22.4703,8.8904,0,U,31307,999,6978,0,-.202E-5,0
INTELSAT 11 (IS-11),2007-044B,2026-06-14T18:53:12.943104,0.99051839,.0002232,3.5592,78.6973,91.2717,152.8295,0,U,32253,999,6842,0,-.273E-5,0
HORIZONS-2,2007-063B,2026-06-14T19:36:01.341216,1.00269150,.0003708,2.5960,80.6542,0.7189,41.9526,0,U,32388,999,6779,0,-.249E-5,0
DIRECTV 11,2008-013A,2026-06-14T14:20:46.849344,1.00270495,.0000474,0.0117,286.9616,78.9307,13.0223,0,U,32729,999,4556,0,-.119E-5,0
GALAXY 18 (G-18),2008-024A,2026-06-14T17:39:17.879904,1.00271725,.0002674,0.0195,22.4390,63.2428,319.1695,0,U,32951,999,4582,0,.31E-6,0
INTELSAT 25 (IS-25),2008-034A,2026-06-14T20:34:38.089056,0.99035870,.0003172,2.7038,80.3985,59.7718,203.6617,0,U,33153,999,6566,0,-.258E-5,0
GALAXY 19 (G-19),2008-045A,2026-06-14T19:29:16.985760,1.00270104,.0002428,0.0199,9.0086,79.8629,9.5610,0,U,33376,999,6488,0,0,0
FM-5,2009-034A,2026-06-14T19:32:31.676064,1.00269724,.0001019,0.0205,292.4193,18.8658,158.8044,0,U,35493,999,4662,0,-.194E-5,0
INTELSAT 14 (IS-14),2009-064A,2026-06-14T19:44:15.550080,1.00270311,.0002141,0.0187,46.5036,29.3107,78.3778,0,U,36097,999,6058,0,-.268E-5,0
INTELSAT 15 (IS-15),2009-067A,2026-06-14T20:21:16.869024,1.00270759,.0002016,0.0207,52.3845,35.1403,206.0861,0,U,36106,999,4120,0,-.179E-5,0
DIRECTV 12,2009-075A,2026-06-14T16:02:25.676736,1.00269778,.0000387,0.0086,104.6882,268.4542,27.7068,0,U,36131,999,4652,0,-.97E-6,0
INTELSAT 16 (IS-16),2010-006A,2026-06-14T19:35:16.412352,1.00269632,.0001911,0.0214,301.2579,164.4131,15.0573,0,U,36397,999,5963,0,-.239E-5,0
XM-5,2010-053A,2026-06-14T15:58:56.013312,1.00271655,.000289,0.0656,273.1442,288.2413,186.1176,0,U,37185,999,5745,0,-.17E-6,0
INTELSAT 17 (IS-17),2010-065B,2026-06-14T20:15:54.883008,1.00271306,.0002588,0.0094,80.5431,11.7175,180.8491,0,U,37238,999,5322,0,.4E-7,0
INTELSAT 28 (IS-28),2011-016A,2026-06-14T19:48:00.190080,1.00270183,.0003579,1.8002,82.6483,5.7251,80.0352,0,U,37392,999,5326,0,-.221E-5,0
INTELSAT 18 (IS-18),2011-056A,2026-06-14T19:05:41.746848,1.00271456,.0001585,0.0156,296.4719,145.2148,287.8261,0,U,37834,999,5378,0,.59E-6,0
INTELSAT 22 (IS-22),2012-011A,2026-06-14T20:17:39.714720,1.00271272,.00016,0.0400,53.0419,45.5836,181.0114,0,U,38098,999,716,0,0,0
INTELSAT 19 (IS-19),2012-030A,2026-06-14T19:01:42.131136,1.00270597,.0002789,0.0165,345.0698,107.2340,262.2051,0,U,38356,999,5042,0,-.51E-6,0
INTELSAT 20 (IS-20),2012-043A,2026-06-14T20:16:32.322720,1.00267923,.0001822,0.0028,41.8549,135.6638,98.2637,0,U,38740,999,5072,0,-.18E-6,0
